STARLINK-2022           
1 47643U 21012Z   24094.94922332  .00011774  00000+0  80787-3 0  9995
2 47643  53.0553 335.3204 0001360  97.8098 262.3046 15.06405936173528
